{
  "type": "FeatureCollection",
  "features": [
    {
      "type": "Feature",
      "properties": {
        "norad_id": 37535,
        "name": "COSMOS 2251 DEB",
        "group": "cosmos-2251-debris",
        "lat": -46.536499028554054,
        "lon": 32.236617188752966,
        "alt_km": 715.1338143692401,
        "timestamp": "2025-12-25T03:55:56.765146+00:00",
        "meta_object_name": "COSMOS 2251 DEB",
        "meta_object_id": "1993-036BNQ",
        "meta_epoch": "2025-12-24T14:01:54.103872",
        "meta_mean_motion": 14.58529628,
        "meta_eccentricity": 0.0027136,
        "meta_inclination": 74.0232,
        "meta_ra_of_asc_node": 50.9348,
        "meta_arg_of_pericenter": 187.9993,
        "meta_mean_anomaly": 322.847,
        "meta_ephemeris_type": 0,
        "meta_classification_type": "U",
        "meta_norad_cat_id": 37535,
        "meta_element_set_no": 999,
        "meta_rev_at_epoch": 85497,
        "meta_bstar": 0.00066761,
        "meta_mean_motion_dot": 3.09e-05,
        "meta_mean_motion_ddot": 0,
        "tle_line1": "1 37535U 93036BNQ 25358.58465398  .00003090  00000+0  66761-3 0  9995",
        "tle_line2": "2 37535  74.0232  50.9348 0027136 187.9993 322.8470 14.58529628854976"
      },
      "geometry": {
        "type": "Point",
        "coordinates": [
          32.236617188752966,
          -46.536499028554054
        ]
      }
    },
    {
      "type": "Feature",
      "properties": {
        "norad_id": 37537,
        "name": "COSMOS 2251 DEB",
        "group": "cosmos-2251-debris",
        "lat": -69.58446303808601,
        "lon": -168.1496638575576,
        "alt_km": 777.5027356833989,
        "timestamp": "2025-12-25T03:55:56.765156+00:00",
        "meta_object_name": "COSMOS 2251 DEB",
        "meta_object_id": "1993-036BNS",
        "meta_epoch": "2025-12-23T00:30:43.344864",
        "meta_mean_motion": 14.37504728,
        "meta_eccentricity": 0.00507516,
        "meta_inclination": 74.0118,
        "meta_ra_of_asc_node": 246.178,
        "meta_arg_of_pericenter": 23.6925,
        "meta_mean_anomaly": 336.6549,
        "meta_ephemeris_type": 0,
        "meta_classification_type": "U",
        "meta_norad_cat_id": 37537,
        "meta_element_set_no": 999,
        "meta_rev_at_epoch": 85181,
        "meta_bstar": 0.00019410826,
        "meta_mean_motion_dot": 5.64e-06,
        "meta_mean_motion_ddot": 0,
        "tle_line1": "1 37537U 93036BNS 25357.02133501  .00000564  00000+0  19411-3 0  9996",
        "tle_line2": "2 37537  74.0118 246.1780 0050751  23.6925 336.6549 14.37504728851811"
      },
      "geometry": {
        "type": "Point",
        "coordinates": [
          -168.1496638575576,
          -69.58446303808601
        ]
      }
    },
    {
      "type": "Feature",
      "properties": {
        "norad_id": 37546,
        "name": "COSMOS 2251 DEB",
        "group": "cosmos-2251-debris",
        "lat": 43.20231626724861,
        "lon": -122.12352068884424,
        "alt_km": 620.9632537079933,
        "timestamp": "2025-12-25T03:55:56.765167+00:00",
        "meta_object_name": "COSMOS 2251 DEB",
        "meta_object_id": "1993-036BPB",
        "meta_epoch": "2025-12-22T05:36:41.418144",
        "meta_mean_motion": 14.80847243,
        "meta_eccentricity": 0.00051432,
        "meta_inclination": 74.0225,
        "meta_ra_of_asc_node": 79.2675,
        "meta_arg_of_pericenter": 73.5105,
        "meta_mean_anomaly": 286.6636,
        "meta_ephemeris_type": 0,
        "meta_classification_type": "U",
        "meta_norad_cat_id": 37546,
        "meta_element_set_no": 999,
        "meta_rev_at_epoch": 66028,
        "meta_bstar": 0.0026855013,
        "meta_mean_motion_dot": 0.00020767,
        "meta_mean_motion_ddot": 0,
        "tle_line1": "1 37546U 93036BPB 25356.23381271  .00020767  00000+0  26855-2 0  9993",
        "tle_line2": "2 37546  74.0225  79.2675 0005143  73.5105 286.6636 14.80847243660287"
      },
      "geometry": {
        "type": "Point",
        "coordinates": [
          -122.12352068884424,
          43.20231626724861
        ]
      }
    },
    {
      "type": "Feature",
      "properties": {
        "norad_id": 37959,
        "name": "COSMOS 2251 DEB",
        "group": "cosmos-2251-debris",
        "lat": 37.75631917096602,
        "lon": 46.099856306074244,
        "alt_km": 723.7057252066052,
        "timestamp": "2025-12-25T03:55:56.765177+00:00",
        "meta_object_name": "COSMOS 2251 DEB",
        "meta_object_id": "1993-036BPJ",
        "meta_epoch": "2025-12-22T13:53:21.860736",
        "meta_mean_motion": 14.58199594,
        "meta_eccentricity": 0.00571783,
        "meta_inclination": 74.0084,
        "meta_ra_of_asc_node": 38.1929,
        "meta_arg_of_pericenter": 178.962,
        "meta_mean_anomaly": 335.9914,
        "meta_ephemeris_type": 0,
        "meta_classification_type": "U",
        "meta_norad_cat_id": 37959,
        "meta_element_set_no": 999,
        "meta_rev_at_epoch": 80270,
        "meta_bstar": 0.00056222313,
        "meta_mean_motion_dot": 2.624e-05,
        "meta_mean_motion_ddot": 0,
        "tle_line1": "1 37959U 93036BPJ 25356.57872524  .00002624  00000+0  56222-3 0  9998",
        "tle_line2": "2 37959  74.0084  38.1929 0057178 178.9620 335.9914 14.58199594802707"
      },
      "geometry": {
        "type": "Point",
        "coordinates": [
          46.099856306074244,
          37.75631917096602
        ]
      }
    },
    {
      "type": "Feature",
      "properties": {
        "norad_id": 37960,
        "name": "COSMOS 2251 DEB",
        "group": "cosmos-2251-debris",
        "lat": 8.887188915980778,
        "lon": -17.4418372555097,
        "alt_km": 690.8609376685017,
        "timestamp": "2025-12-25T03:55:56.765199+00:00",
        "meta_object_name": "COSMOS 2251 DEB",
        "meta_object_id": "1993-036BPK",
        "meta_epoch": "2025-12-23T05:04:36.493536",
        "meta_mean_motion": 14.07887566,
        "meta_eccentricity": 0.02481157,
        "meta_inclination": 74.0591,
        "meta_ra_of_asc_node": 168.5402,
        "meta_arg_of_pericenter": 184.7073,
        "meta_mean_anomaly": 175.1734,
        "meta_ephemeris_type": 0,
        "meta_classification_type": "U",
        "meta_norad_cat_id": 37960,
        "meta_element_set_no": 999,
        "meta_rev_at_epoch": 77553,
        "meta_bstar": 0.0007466601,
        "meta_mean_motion_dot": 1.655e-05,
        "meta_mean_motion_ddot": 0,
        "tle_line1": "1 37960U 93036BPK 25357.21153349  .00001655  00000+0  74666-3 0  9994",
        "tle_line2": "2 37960  74.0591 168.5402 0248115 184.7073 175.1734 14.07887566775537"
      },
      "geometry": {
        "type": "Point",
        "coordinates": [
          -17.4418372555097,
          8.887188915980778
        ]
      }
    },
    {
      "type": "Feature",
      "properties": {
        "norad_id": 37961,
        "name": "COSMOS 2251 DEB",
        "group": "cosmos-2251-debris",
        "lat": 71.70965409800085,
        "lon": -126.48400401770198,
        "alt_km": 692.6909016716409,
        "timestamp": "2025-12-25T03:55:56.765210+00:00",
        "meta_object_name": "COSMOS 2251 DEB",
        "meta_object_id": "1993-036BPL",
        "meta_epoch": "2025-12-13T03:18:27.462240",
        "meta_mean_motion": 14.57979799,
        "meta_eccentricity": 0.00406759,
        "meta_inclination": 74.0407,
        "meta_ra_of_asc_node": 136.3488,
        "meta_arg_of_pericenter": 216.8805,
        "meta_mean_anomaly": 142.9561,
        "meta_ephemeris_type": 0,
        "meta_classification_type": "U",
        "meta_norad_cat_id": 37961,
        "meta_element_set_no": 999,
        "meta_rev_at_epoch": 80071,
        "meta_bstar": 0.001729191,
        "meta_mean_motion_dot": 8.011e-05,
        "meta_mean_motion_ddot": 0,
        "tle_line1": "1 37961U 93036BPL 25347.13781785  .00008011  00000+0  17292-2 0  9990",
        "tle_line2": "2 37961  74.0407 136.3488 0040675 216.8805 142.9561 14.57979799800716"
      },
      "geometry": {
        "type": "Point",
        "coordinates": [
          -126.48400401770198,
          71.70965409800085
        ]
      }
    },
    {
      "type": "Feature",
      "properties": {
        "norad_id": 37966,
        "name": "COSMOS 2251 DEB",
        "group": "cosmos-2251-debris",
        "lat": 23.559330129478496,
        "lon": 17.4897244727246,
        "alt_km": 521.2917441132777,
        "timestamp": "2025-12-25T03:55:56.765220+00:00",
        "meta_object_name": "COSMOS 2251 DEB",
        "meta_object_id": "1993-036BPR",
        "meta_epoch": "2025-12-13T08:51:38.421216",
        "meta_mean_motion": 15.12745257,
        "meta_eccentricity": 0.0008827,
        "meta_inclination": 73.9781,
        "meta_ra_of_asc_node": 229.2381,
        "meta_arg_of_pericenter": 105.5668,
        "meta_mean_anomaly": 254.6501,
        "meta_ephemeris_type": 0,
        "meta_classification_type": "U",
        "meta_norad_cat_id": 37966,
        "meta_element_set_no": 999,
        "meta_rev_at_epoch": 85352,
        "meta_bstar": 0.0033929269,
        "meta_mean_motion_dot": 0.00060007,
        "meta_mean_motion_ddot": 0,
        "tle_line1": "1 37966U 93036BPR 25347.36919469  .00060007  00000+0  33929-2 0  9990",
        "tle_line2": "2 37966  73.9781 229.2381 0008827 105.5668 254.6501 15.12745257853526"
      },
      "geometry": {
        "type": "Point",
        "coordinates": [
          17.4897244727246,
          23.559330129478496
        ]
      }
    }
  ]
}